{"type": "FeatureCollection", "features": [ {"type": "Feature", "properties": {"norad_id": 66545, "name": "SHIJIAN-30A", "group": "last-30-days", "lat": 27.154166448159774, "lon": 130.99511054886557, "alt_km": 523.2940889322081, "timestamp": "2025-12-12T07:43:19.257799+00:00", "meta": {"OBJECT_NAME": "SHIJIAN-30A", "OBJECT_ID": "2025-266A", "EPOCH": "2025-12-11T23:10:31.508544", "MEAN_MOTION": 15.15626643, "ECCENTRICITY": 0.00127738, "INCLINATION": 51.7983, "RA_OF_ASC_NODE": 336.4885, "ARG_OF_PERICENTER": 353.748, "MEAN_ANOMALY": 6.3335, "EPHEMERIS_TYPE": 0, "CLASSIFICATION_TYPE": "U", "NORAD_CAT_ID": 66545, "ELEMENT_SET_NO": 999, "REV_AT_EPOCH": 346, "BSTAR": 0.00084722558, "MEAN_MOTION_DOT": 0.00016061, "MEAN_MOTION_DDOT": 0}, "tle": {"line1": "1 66545U 25266A   25345.96564246  .00016061  00000+0  84723-3 0  9998", "line2": "2 66545  51.7983 336.4885 0012773 353.7480   6.3335 15.15626643  3460"}}, "geometry": {"type": "Point", "coordinates": [130.99511054886557, 27.154166448159774]}}, {"type": "Feature", "properties": {"norad_id": 66546, "name": "SHIJIAN-30B", "group": "last-30-days", "lat": 31.37301908828151, "lon": 126.12804408274367, "alt_km": 521.3317325610606, "timestamp": "2025-12-12T07:43:19.257811+00:00", "meta": {"OBJECT_NAME": "SHIJIAN-30B", "OBJECT_ID": "2025-266B", "EPOCH": "2025-12-11T23:12:01.445760", "MEAN_MOTION": 15.15383065, "ECCENTRICITY": 0.00104668, "INCLINATION": 51.7965, "RA_OF_ASC_NODE": 336.4918, "ARG_OF_PERICENTER": 356.7225, "MEAN_ANOMALY": 3.3681, "EPHEMERIS_TYPE": 0, "CLASSIFICATION_TYPE": "U", "NORAD_CAT_ID": 66546, "ELEMENT_SET_NO": 999, "REV_AT_EPOCH": 346, "BSTAR": 0.00097473372, "MEAN_MOTION_DOT": 0.00018391, "MEAN_MOTION_DDOT": 0}, "tle": {"line1": "1 66546U 25266B   25345.96668340  .00018391  00000+0  97473-3 0  9993", "line2": "2 66546  51.7965 336.4918 0010466 356.7225   3.3681 15.15383065  3464"}}, "geometry": {"type": "Point", "coordinates": [126.12804408274367, 31.37301908828151]}}, {"type": "Feature", "properties": {"norad_id": 66547, "name": "SHIJIAN-30C", "group": "last-30-days", "lat": 32.81581731704622, "lon": 124.3138680220083, "alt_km": 521.7757342165969, "timestamp": "2025-12-12T07:43:19.257821+00:00", "meta": {"OBJECT_NAME": "SHIJIAN-30C", "OBJECT_ID": "2025-266C", "EPOCH": "2025-12-11T23:12:36.522432", "MEAN_MOTION": 15.15487068, "ECCENTRICITY": 0.0011348, "INCLINATION": 51.7975, "RA_OF_ASC_NODE": 336.4961, "ARG_OF_PERICENTER": 348.2128, "MEAN_ANOMALY": 11.8581, "EPHEMERIS_TYPE": 0, "CLASSIFICATION_TYPE": "U", "NORAD_CAT_ID": 66547, "ELEMENT_SET_NO": 999, "REV_AT_EPOCH": 346, "BSTAR": 0.00086741869, "MEAN_MOTION_DOT": 0.0001638, "MEAN_MOTION_DDOT": 0}, "tle": {"line1": "1 66547U 25266C   25345.96708938  .00016380  00000+0  86742-3 0  9995", "line2": "2 66547  51.7975 336.4961 0011348 348.2128  11.8581 15.15487068  3463"}}, "geometry": {"type": "Point", "coordinates": [124.3138680220083, 32.81581731704622]}}, {"type": "Feature", "properties": {"norad_id": 66548, "name": "CZ-2C R/B", "group": "last-30-days", "lat": -50.477177066184424, "lon": -135.6821253806389, "alt_km": 475.95911818002514, "timestamp": "2025-12-12T07:43:19.257834+00:00", "meta": {"OBJECT_NAME": "CZ-2C R/B", "OBJECT_ID": "2025-266D", "EPOCH": "2025-12-12T00:20:01.693536", "MEAN_MOTION": 15.30153637, "ECCENTRICITY": 0.00839413, "INCLINATION": 52.0554, "RA_OF_ASC_NODE": 334.738, "ARG_OF_PERICENTER": 170.5041, "MEAN_ANOMALY": 189.7556, "EPHEMERIS_TYPE": 0, "CLASSIFICATION_TYPE": "U", "NORAD_CAT_ID": 66548, "ELEMENT_SET_NO": 999, "REV_AT_EPOCH": 350, "BSTAR": 0.00046721007, "MEAN_MOTION_DOT": 0.00015035, "MEAN_MOTION_DDOT": 0}, "tle": {"line1": "1 66548U 25266D   25346.01390849  .00015035  00000+0  46721-3 0  9990", "line2": "2 66548  52.0554 334.7380 0083941 170.5041 189.7556 15.30153637  3506"}}, "geometry": {"type": "Point", "coordinates": [-135.6821253806389, -50.477177066184424]}}, {"type": "Feature", "properties": {"norad_id": 66549, "name": "SHIJIAN-28", "group": "last-30-days", "lat": -17.116318181137327, "lon": -178.8925687634069, "alt_km": 678.4692880014827, "timestamp": "2025-12-12T07:43:19.257845+00:00", "meta": {"OBJECT_NAME": "SHIJIAN-28", "OBJECT_ID": "2025-277A", "EPOCH": "2025-12-11T21:50:26.664576", "MEAN_MOTION": 14.45036477, "ECCENTRICITY": 0.0226533, "INCLINATION": 66.663, "RA_OF_ASC_NODE": 189.8532, "ARG_OF_PERICENTER": 275.2622, "MEAN_ANOMALY": 82.2673, "EPHEMERIS_TYPE": 0, "CLASSIFICATION_TYPE": "U", "NORAD_CAT_ID": 66549, "ELEMENT_SET_NO": 999, "REV_AT_EPOCH": 42374, "BSTAR": 0.00018715, "MEAN_MOTION_DOT": 7.83e-06, "MEAN_MOTION_DDOT": 0}, "tle": {"line1": "1 66549U 25277A   25345.91003084  .00000783  00000+0  18715-3 0  9999", "line2": "2 66549  66.6630 189.8532 0226533 275.2622  82.2673 14.45036477423741"}}, "geometry": {"type": "Point", "coordinates": [-178.8925687634069, -17.116318181137327]}}, {"type": "Feature", "properties": {"norad_id": 66550, "name": "CZ-7A R/B", "group": "last-30-days", "lat": 3.7263376834153714, "lon": -75.19831025240963, "alt_km": 30330.35706878163, "timestamp": "2025-12-12T07:43:19.257857+00:00", "meta": {"OBJECT_NAME": "CZ-7A R/B", "OBJECT_ID": "2025-277B", "EPOCH": "2025-12-11T12:15:39.945600", "MEAN_MOTION": 2.65298958, "ECCENTRICITY": 0.70570413, "INCLINATION": 14.4036, "RA_OF_ASC_NODE": 270.5234, "ARG_OF_PERICENTER": 187.6434, "MEAN_ANOMALY": 149.2328, "EPHEMERIS_TYPE": 0, "CLASSIFICATION_TYPE": "U", "NORAD_CAT_ID": 66550, "ELEMENT_SET_NO": 999, "REV_AT_EPOCH": 31, "BSTAR": 0.0010583352, "MEAN_MOTION_DOT": 0.01545385, "MEAN_MOTION_DDOT": 2.47923e-06}, "tle": {"line1": "1 66550U 25277B   25345.51087900  .01545385  24792-5  10583-2 0  9993", "line2": "2 66550  14.4036 270.5234 7057041 187.6434 149.2328  2.65298958   319"}}, "geometry": {"type": "Point", "coordinates": [-75.19831025240963, 3.7263376834153714]}}, {"type": "Feature", "properties": {"norad_id": 66551, "name": "USA 568", "group": "last-30-days", "lat": 40.46011973777268, "lon": -130.94594327104647, "alt_km": 232.1963013218001, "timestamp": "2025-12-12T07:43:19.257868+00:00", "meta": {"OBJECT_NAME": "USA 568", "OBJECT_ID": "2024-134K", "EPOCH": "2025-12-02T16:00:03.000096", "MEAN_MOTION": 15.87051116, "ECCENTRICITY": 7.17e-05, "INCLINATION": 53.1571, "RA_OF_ASC_NODE": 236.7807, "ARG_OF_PERICENTER": 110.7411, "MEAN_ANOMALY": 313.9012, "EPHEMERIS_TYPE": 0, "CLASSIFICATION_TYPE": "U", "NORAD_CAT_ID": 66551, "ELEMENT_SET_NO": 999, "REV_AT_EPOCH": 262, "BSTAR": -0.0074303, "MEAN_MOTION_DOT": -0.01709685, "MEAN_MOTION_DDOT": 0}, "tle": {"line1": "1 66551U 24134K   25336.66670139 -.01709685  00000+0 -74303-2 0  9990", "line2": "2 66551  53.1571 236.7807 0000717 110.7411 313.9012 15.87051116  2624"}}, "geometry": {"type": "Point", "coordinates": [-130.94594327104647, 40.46011973777268]}}, {"type": "Feature", "properties": {"norad_id": 66554, "name": "GLOBAL-33", "group": "last-30-days", "lat": -41.94557736135089, "lon": -27.01767156584903, "alt_km": 476.3855597637603, "timestamp": "2025-12-12T07:43:19.257879+00:00", "meta": {"OBJECT_NAME": "GLOBAL-33", "OBJECT_ID": "2025-267A", "EPOCH": "2025-12-11T14:53:12.552288", "MEAN_MOTION": 15.31613043, "ECCENTRICITY": 0.00043712, "INCLINATION": 42.0212, "RA_OF_ASC_NODE": 63.4559, "ARG_OF_PERICENTER": 46.3547, "MEAN_ANOMALY": 313.7652, "EPHEMERIS_TYPE": 0, "CLASSIFICATION_TYPE": "U", "NORAD_CAT_ID": 66554, "ELEMENT_SET_NO": 999, "REV_AT_EPOCH": 323, "BSTAR": 0.00061477883, "MEAN_MOTION_DOT": 0.00018974, "MEAN_MOTION_DDOT": 0}, "tle": {"line1": "1 66554U 25267A   25345.62028417  .00018974  00000+0  61478-3 0  9994", "line2": "2 66554  42.0212  63.4559 0004371  46.3547 313.7652 15.31613043  3237"}}, "geometry": {"type": "Point", "coordinates": [-27.01767156584903, -41.94557736135089]}}, {"type": "Feature", "properties": {"norad_id": 66555, "name": "ELECTRON KICK STAGE R/B", "group": "last-30-days", "lat": -15.791018231330582, "lon": 40.94471865091925, "alt_km": 467.64559071588974, "timestamp": "2025-12-12T07:43:19.257891+00:00", "meta": {"OBJECT_NAME": "ELECTRON KICK STAGE R/B", "OBJECT_ID": "2025-267B", "EPOCH": "2025-12-11T14:37:24.915360", "MEAN_MOTION": 15.32723055, "ECCENTRICITY": 0.00065972, "INCLINATION": 42.0196, "RA_OF_ASC_NODE": 63.3722, "ARG_OF_PERICENTER": 43.8355, "MEAN_ANOMALY": 316.3006, "EPHEMERIS_TYPE": 0, "CLASSIFICATION_TYPE": "U", "NORAD_CAT_ID": 66555, "ELEMENT_SET_NO": 999, "REV_AT_EPOCH": 323, "BSTAR": 0.0011433379, "MEAN_MOTION_DOT": 0.00036872, "MEAN_MOTION_DDOT": 0}, "tle": {"line1": "1 66555U 25267B   25345.60931615  .00036872  00000+0  11433-2 0  9998", "line2": "2 66555  42.0196  63.3722 0006597  43.8355 316.3006 15.32723055  3239"}}, "geometry": {"type": "Point", "coordinates": [40.94471865091925, -15.791018231330582]}}, {"type": "Feature", "properties": {"norad_id": 66557, "name": "STARLINK-35699", "group": "last-30-days", "lat": -41.690293141640474, "lon": 50.74204860139997, "alt_km": 417.66759215930324, "timestamp": "2025-12-12T07:43:19.257902+00:00", "meta": {"OBJECT_NAME": "STARLINK-35699", "OBJECT_ID": "2025-268A", "EPOCH": "2025-12-11T20:00:01.999872", "MEAN_MOTION": 15.50767275, "ECCENTRICITY": 0.00017196, "INCLINATION": 43, "RA_OF_ASC_NODE": 126.5015, "ARG_OF_PERICENTER": 265.8621, "MEAN_ANOMALY": 167.2896, "EPHEMERIS_TYPE": 0, "CLASSIFICATION_TYPE": "U", "NORAD_CAT_ID": 66557, "ELEMENT_SET_NO": 999, "REV_AT_EPOCH": 452, "BSTAR": -0.0061498174, "MEAN_MOTION_DOT": -0.00347904, "MEAN_MOTION_DDOT": 0}, "tle": {"line1": "1 66557U 25268A   25345.83335648 -.00347904  00000+0 -61498-2 0  9999", "line2": "2 66557  43.0000 126.5015 0001719 265.8621 167.2896 15.50767275  4521"}}, "geometry": {"type": "Point", "coordinates": [50.74204860139997, -41.690293141640474]}}]}